CCSDS_OMM_VERS = 2.0
CREATION_DATE  = 
ORIGINATOR     = 

OBJECT_NAME    = STARLINK-35637
OBJECT_ID      = 2025-237S
CENTER_NAME    = EARTH
REF_FRAME      = TEME
TIME_SYSTEM    = UTC
MEAN_ELEMENT_THEORY = SGP/SGP4

EPOCH          = 2025-11-15T20:00:01.999008
MEAN_MOTION    = 15.46858590
ECCENTRICITY   = .0000937
INCLINATION    = 53.1602
RA_OF_ASC_NODE = 214.3487
ARG_OF_PERICENTER = 111.7612
MEAN_ANOMALY   = 324.9030

EPHEMERIS_TYPE = 0
CLASSIFICATION_TYPE = U
NORAD_CAT_ID   = 66130
ELEMENT_SET_NO = 999
REV_AT_EPOCH   = 515
BSTAR          = -.46033E-1
MEAN_MOTION_DOT = -.2086772E-1
MEAN_MOTION_DDOT = 0

CCSDS_OMM_VERS = 2.0
CREATION_DATE  = 
ORIGINATOR     = 

OBJECT_NAME    = STARLINK-35630
OBJECT_ID      = 2025-237T
CENTER_NAME    = EARTH
REF_FRAME      = TEME
TIME_SYSTEM    = UTC
MEAN_ELEMENT_THEORY = SGP/SGP4

EPOCH          = 2025-11-15T20:00:01.999008
MEAN_MOTION    = 15.49743372
ECCENTRICITY   = .0001548
INCLINATION    = 53.1602
RA_OF_ASC_NODE = 214.3400
ARG_OF_PERICENTER = 89.3917
MEAN_ANOMALY   = 351.5756

EPHEMERIS_TYPE = 0
CLASSIFICATION_TYPE = U
NORAD_CAT_ID   = 66131
ELEMENT_SET_NO = 999
REV_AT_EPOCH   = 515
BSTAR          = -.3568E-1
MEAN_MOTION_DOT = -.1789174E-1
MEAN_MOTION_DDOT = 0

CCSDS_OMM_VERS = 2.0
CREATION_DATE  = 
ORIGINATOR     = 

OBJECT_NAME    = STARLINK-34412
OBJECT_ID      = 2025-237U
CENTER_NAME    = EARTH
REF_FRAME      = TEME
TIME_SYSTEM    = UTC
MEAN_ELEMENT_THEORY = SGP/SGP4

EPOCH          = 2025-11-15T20:00:01.999008
MEAN_MOTION    = 15.49289924
ECCENTRICITY   = .0001359
INCLINATION    = 53.1601
RA_OF_ASC_NODE = 214.3360
ARG_OF_PERICENTER = 97.9561
MEAN_ANOMALY   = 345.1303

EPHEMERIS_TYPE = 0
CLASSIFICATION_TYPE = U
NORAD_CAT_ID   = 66132
ELEMENT_SET_NO = 999
REV_AT_EPOCH   = 506
BSTAR          = -.86822E-3
MEAN_MOTION_DOT = -.48405E-3
MEAN_MOTION_DDOT = 0

CCSDS_OMM_VERS = 2.0
CREATION_DATE  = 
ORIGINATOR     = 

OBJECT_NAME    = STARLINK-35520
OBJECT_ID      = 2025-237V
CENTER_NAME    = EARTH
REF_FRAME      = TEME
TIME_SYSTEM    = UTC
MEAN_ELEMENT_THEORY = SGP/SGP4

EPOCH          = 2025-11-15T20:00:01.999008
MEAN_MOTION    = 15.49317263
ECCENTRICITY   = .0000991
INCLINATION    = 53.1601
RA_OF_ASC_NODE = 214.3321
ARG_OF_PERICENTER = 94.0073
MEAN_ANOMALY   = 350.8550

EPHEMERIS_TYPE = 0
CLASSIFICATION_TYPE = U
NORAD_CAT_ID   = 66133
ELEMENT_SET_NO = 999
REV_AT_EPOCH   = 515
BSTAR          = -.62638E-3
MEAN_MOTION_DOT = -.35138E-3
MEAN_MOTION_DDOT = 0

CCSDS_OMM_VERS = 2.0
CREATION_DATE  = 
ORIGINATOR     = 

OBJECT_NAME    = STARLINK-35525
OBJECT_ID      = 2025-237W
CENTER_NAME    = EARTH
REF_FRAME      = TEME
TIME_SYSTEM    = UTC
MEAN_ELEMENT_THEORY = SGP/SGP4

EPOCH          = 2025-11-15T20:00:01.999008
MEAN_MOTION    = 15.49352475
ECCENTRICITY   = .0000993
INCLINATION    = 53.1599
RA_OF_ASC_NODE = 214.3290
ARG_OF_PERICENTER = 103.8448
MEAN_ANOMALY   = 342.9133

EPHEMERIS_TYPE = 0
CLASSIFICATION_TYPE = U
NORAD_CAT_ID   = 66134
ELEMENT_SET_NO = 999
REV_AT_EPOCH   = 515
BSTAR          = -.15178E-2
MEAN_MOTION_DOT = -.84088E-3
MEAN_MOTION_DDOT = 0

CCSDS_OMM_VERS = 2.0
CREATION_DATE  = 
ORIGINATOR     = 

OBJECT_NAME    = STARLINK-34852
OBJECT_ID      = 2025-237X
CENTER_NAME    = EARTH
REF_FRAME      = TEME
TIME_SYSTEM    = UTC
MEAN_ELEMENT_THEORY = SGP/SGP4

EPOCH          = 2025-11-15T20:00:01.999008
MEAN_MOTION    = 15.49375923
ECCENTRICITY   = .000109
INCLINATION    = 53.1601
RA_OF_ASC_NODE = 214.3239
ARG_OF_PERICENTER = 101.4073
MEAN_ANOMALY   = 347.2626

EPHEMERIS_TYPE = 0
CLASSIFICATION_TYPE = U
NORAD_CAT_ID   = 66135
ELEMENT_SET_NO = 999
REV_AT_EPOCH   = 511
BSTAR          = -.24615E-2
MEAN_MOTION_DOT = -.135323E-2
MEAN_MOTION_DDOT = 0

CCSDS_OMM_VERS = 2.0
CREATION_DATE  = 
ORIGINATOR     = 

OBJECT_NAME    = STARLINK-35592
OBJECT_ID      = 2025-237Y
CENTER_NAME    = EARTH
REF_FRAME      = TEME
TIME_SYSTEM    = UTC
MEAN_ELEMENT_THEORY = SGP/SGP4

EPOCH          = 2025-11-15T20:00:01.999008
MEAN_MOTION    = 15.49339360
ECCENTRICITY   = .0001136
INCLINATION    = 53.1601
RA_OF_ASC_NODE = 214.3202
ARG_OF_PERICENTER = 91.7958
MEAN_ANOMALY   = 358.8166

EPHEMERIS_TYPE = 0
CLASSIFICATION_TYPE = U
NORAD_CAT_ID   = 66136
ELEMENT_SET_NO = 999
REV_AT_EPOCH   = 515
BSTAR          = -.14704E-2
MEAN_MOTION_DOT = -.81464E-3
MEAN_MOTION_DDOT = 0

CCSDS_OMM_VERS = 2.0
CREATION_DATE  = 
ORIGINATOR     = 

OBJECT_NAME    = STARLINK-35576
OBJECT_ID      = 2025-237Z
CENTER_NAME    = EARTH
REF_FRAME      = TEME
TIME_SYSTEM    = UTC
MEAN_ELEMENT_THEORY = SGP/SGP4

EPOCH          = 2025-11-15T20:00:01.999008
MEAN_MOTION    = 15.49322172
ECCENTRICITY   = .0001295
INCLINATION    = 53.1601
RA_OF_ASC_NODE = 214.3156
ARG_OF_PERICENTER = 90.9799
MEAN_ANOMALY   = 1.5564

EPHEMERIS_TYPE = 0
CLASSIFICATION_TYPE = U
NORAD_CAT_ID   = 66137
ELEMENT_SET_NO = 999
REV_AT_EPOCH   = 515
BSTAR          = -.90044E-3
MEAN_MOTION_DOT = -.5023E-3
MEAN_MOTION_DDOT = 0

CCSDS_OMM_VERS = 2.0
CREATION_DATE  = 
ORIGINATOR     = 

OBJECT_NAME    = STARLINK-35623
OBJECT_ID      = 2025-237AA
CENTER_NAME    = EARTH
REF_FRAME      = TEME
TIME_SYSTEM    = UTC
MEAN_ELEMENT_THEORY = SGP/SGP4

EPOCH          = 2025-11-15T20:00:01.999008
MEAN_MOTION    = 15.49323951
ECCENTRICITY   = .0000941
INCLINATION    = 53.1599
RA_OF_ASC_NODE = 214.3132
ARG_OF_PERICENTER = 82.1238
MEAN_ANOMALY   = 12.3206

EPHEMERIS_TYPE = 0
CLASSIFICATION_TYPE = U
NORAD_CAT_ID   = 66138
ELEMENT_SET_NO = 999
REV_AT_EPOCH   = 515
BSTAR          = -.81102E-3
MEAN_MOTION_DOT = -.45316E-3
MEAN_MOTION_DDOT = 0

CCSDS_OMM_VERS = 2.0
CREATION_DATE  = 
ORIGINATOR     = 

OBJECT_NAME    = STARLINK-35549
OBJECT_ID      = 2025-237AB
CENTER_NAME    = EARTH
REF_FRAME      = TEME
TIME_SYSTEM    = UTC
MEAN_ELEMENT_THEORY = SGP/SGP4

EPOCH          = 2025-11-15T20:00:01.999008
MEAN_MOTION    = 15.49239967
ECCENTRICITY   = .0001461
INCLINATION    = 53.1601
RA_OF_ASC_NODE = 214.3041
ARG_OF_PERICENTER = 79.9119
MEAN_ANOMALY   = 18.3493

EPHEMERIS_TYPE = 0
CLASSIFICATION_TYPE = U
NORAD_CAT_ID   = 66139
ELEMENT_SET_NO = 999
REV_AT_EPOCH   = 515
BSTAR          = .74034E-3
MEAN_MOTION_DOT = .40842E-3
MEAN_MOTION_DDOT = 0

CCSDS_OMM_VERS = 2.0
CREATION_DATE  = 
ORIGINATOR     = 

OBJECT_NAME    = STARLINK-35625
OBJECT_ID      = 2025-237AC
CENTER_NAME    = EARTH
REF_FRAME      = TEME
TIME_SYSTEM    = UTC
MEAN_ELEMENT_THEORY = SGP/SGP4

EPOCH          = 2025-11-15T20:00:01.999008
MEAN_MOTION    = 15.49342023
ECCENTRICITY   = .0000899
INCLINATION    = 53.1601
RA_OF_ASC_NODE = 214.3081
ARG_OF_PERICENTER = 83.2486
MEAN_ANOMALY   = 13.1148

EPHEMERIS_TYPE = 0
CLASSIFICATION_TYPE = U
NORAD_CAT_ID   = 66140
ELEMENT_SET_NO = 999
REV_AT_EPOCH   = 515
BSTAR          = -.15262E-2
MEAN_MOTION_DOT = -.84515E-3
MEAN_MOTION_DDOT = 0

CCSDS_OMM_VERS = 2.0
CREATION_DATE  = 
ORIGINATOR     = 

OBJECT_NAME    = STARLINK-35603
OBJECT_ID      = 2025-237AD
CENTER_NAME    = EARTH
REF_FRAME      = TEME
TIME_SYSTEM    = UTC
MEAN_ELEMENT_THEORY = SGP/SGP4

EPOCH          = 2025-11-15T20:00:01.999008
MEAN_MOTION    = 15.49359073
ECCENTRICITY   = .0000992
INCLINATION    = 53.1600
RA_OF_ASC_NODE = 214.3003
ARG_OF_PERICENTER = 85.9517
MEAN_ANOMALY   = 14.2465

EPHEMERIS_TYPE = 0
CLASSIFICATION_TYPE = U
NORAD_CAT_ID   = 66141
ELEMENT_SET_NO = 999
REV_AT_EPOCH   = 515
BSTAR          = -.22159E-2
MEAN_MOTION_DOT = -.121996E-2
MEAN_MOTION_DDOT = 0

