STARLINK-35637          
1 66130U 25237S   25319.83335647 -.02086772  00000+0 -46033-1 0  9994
2 66130  53.1602 214.3487 0000937 111.7612 324.9030 15.46858590  5155
STARLINK-35630          
1 66131U 25237T   25319.83335647 -.01789174  00000+0 -35680-1 0  9996
2 66131  53.1602 214.3400 0001548  89.3917 351.5756 15.49743372  5153
STARLINK-34412          
1 66132U 25237U   25319.83335647 -.00048405  00000+0 -86822-3 0  9997
2 66132  53.1601 214.3360 0001359  97.9561 345.1303 15.49289924  5063
STARLINK-35520          
1 66133U 25237V   25319.83335647 -.00035138  00000+0 -62638-3 0  9996
2 66133  53.1601 214.3321 0000991  94.0073 350.8550 15.49317263  5153
STARLINK-35525          
1 66134U 25237W   25319.83335647 -.00084088  00000+0 -15178-2 0  9991
2 66134  53.1599 214.3290 0000993 103.8448 342.9133 15.49352475  5155
STARLINK-34852          
1 66135U 25237X   25319.83335647 -.00135323  00000+0 -24615-2 0  9997
2 66135  53.1601 214.3239 0001090 101.4073 347.2626 15.49375923  5114
STARLINK-35592          
1 66136U 25237Y   25319.83335647 -.00081464  00000+0 -14704-2 0  9992
2 66136  53.1601 214.3202 0001136  91.7958 358.8166 15.49339360  5155
STARLINK-35576          
1 66137U 25237Z   25319.83335647 -.00050230  00000+0 -90044-3 0  9992
2 66137  53.1601 214.3156 0001295  90.9799   1.5564 15.49322172  5151
STARLINK-35623          
1 66138U 25237AA  25319.83335647 -.00045316  00000+0 -81102-3 0  9997
2 66138  53.1599 214.3132 0000941  82.1238  12.3206 15.49323951  5159
STARLINK-35549          
1 66139U 25237AB  25319.83335647  .00040842  00000+0  74034-3 0  9991
2 66139  53.1601 214.3041 0001461  79.9119  18.3493 15.49239967  5150
STARLINK-35625          
1 66140U 25237AC  25319.83335647 -.00084515  00000+0 -15262-2 0  9997
2 66140  53.1601 214.3081 0000899  83.2486  13.1148 15.49342023  5153
STARLINK-35603          
1 66141U 25237AD  25319.83335647 -.00121996  00000+0 -22159-2 0  9996
2 66141  53.1600 214.3003 0000992  85.9517  14.2465 15.49359073  5152
